NOAA 1                  
1 04793U 70106A   26065.05104539 -.00000034  00000+0  53260-4 0  9990
2 04793 101.3520 104.2345 0031718 188.0071 200.9606 12.54049236527767
NOAA 2 (ITOS-D)         
1 06235U 72082A   26065.29256718 -.00000041  00000+0  33399-4 0  9990
2 06235 102.0167  82.7075 0003999  11.7454 359.4138 12.53211722442061
NOAA 3                  
1 06920U 73086A   26065.27291568 -.00000040  00000+0  49709-4 0  9997
2 06920 102.2908  78.2180 0006189 315.3209  56.0665 12.40391692369142
NOAA 4                  
1 07529U 74089A   26064.96587435 -.00000050  00000+0 -21848-4 0  9999
2 07529 102.0073  76.6571 0009143  35.7967  34.0353 12.53201583346599
NOAA 5                  
1 09057U 76077A   26065.19206653 -.00000036  00000+0  80759-4 0  9991
2 09057 102.2956  50.6805 0009783 167.0171 203.7108 12.37828286241737
TIROS N                 
1 11060U 78096A   26065.07533680  .00000196  00000+0  11310-3 0  9993
2 11060  98.4638  90.7555 0010550 175.5448 184.5824 14.19336484664128
NOAA 6                  
1 11416U 79057A   26065.06629428  .00000374  00000+0  14539-3 0  9995
2 11416  98.5755  95.2418 0009534 197.8699 162.2153 14.35430268436169
NOAA 7                  
1 12553U 81059A   26065.13252998  .00000070  00000+0  55983-4 0  9997
2 12553  98.8066 133.2136 0011179 198.0928 161.9850 14.17772375310143
NOAA 8                  
1 13923U 83022A   26065.05528203  .00000176  00000+0  86135-4 0  9997
2 13923  98.7374  77.8406 0014465 196.3399 163.7319 14.29765094236334
NOAA 9                  
1 15427U 84123A   26065.31734257  .00000169  00000+0  10709-3 0  9993
2 15427  99.1099  89.5222 0013672 281.9733  88.5420 14.17037665128859
NOAA 10                 
1 16969U 86073A   26064.90249229  .00000198  00000+0  95450-4 0  9994
2 16969  98.6997  58.3028 0011144 301.3023 116.7484 14.29142314 54663
NOAA 11                 
1 19531U 88089A   26065.25301872  .00000109  00000+0  76904-4 0  9998
2 19531  98.6091  14.4094 0010130 230.2842 129.7440 14.15819827932919
NOAA 12                 
1 21263U 91032A   26065.24691215  .00000179  00000+0  91890-4 0  9995
2 21263  98.6151  55.3018 0013110 333.7250  26.3264 14.26716271810286
NOAA 13                 
1 22739U 93050A   26065.25231956  .00000176  00000+0  11574-3 0  9996
2 22739  98.6930  13.0955 0010497  65.9196 294.3075 14.13635022678839
NOAA 14                 
1 23455U 94089A   26065.21635471  .00000088  00000+0  67034-4 0  9996
2 23455  98.5017  39.5963 0009974  26.0335 334.1339 14.14654300608642
NOAA 15                 
1 25338U 98030A   26065.26322601  .00000197  00000+0  98522-4 0  9998
2 25338  98.5166  88.6340 0009122 291.4680  68.5528 14.27110960446617
NOAA 16                 
1 26536U 00055A   26065.27205119  .00000141  00000+0  96156-4 0  9994
2 26536  98.4706  84.9528 0009457 232.9240 127.1069 14.13897081609183
NOAA 17                 
1 27453U 02032A   26065.30827408  .00000331  00000+0  15714-3 0  9996
2 27453  98.8537  29.9022 0010649 292.5463  67.4589 14.26186944232324
NOAA 18                 
1 28654U 05018A   26065.28614251  .00000091  00000+0  71130-4 0  9992
2 28654  98.8161 146.4411 0015331  84.4766 275.8155 14.13710043 71778
NOAA 19                 
1 33591U 09005A   26065.26672888  .00000086  00000+0  69799-4 0  9998
2 33591  98.9613 136.0320 0013021 324.9809  35.0506 14.13456081879945
SUOMI NPP               
1 37849U 11061A   26065.28948032  .00000144  00000+0  89148-4 0  9997
2 37849  98.7867   6.9192 0000402 263.2278  96.8853 14.19542441743841
NOAA 20 (JPSS-1)        
1 43013U 17073A   26065.30413478  .00000124  00000+0  79552-4 0  9996
2 43013  98.7689   5.7250 0001061 141.7646 218.3606 14.19535050429875
NOAA 21 (JPSS-2)        
1 54234U 22150A   26065.26839537  .00000135  00000+0  84905-4 0  9998
2 54234  98.7552   5.5736 0002593 112.6272 247.5179 14.19551134171943
